{
  "type": "FeatureCollection",
  "features": [
    {
      "type": "Feature",
      "properties": {
        "norad_id": 35616,
        "name": "IRIDIUM 33 DEB",
        "group": "iridium-33-debris",
        "lat": -52.86430474017835,
        "lon": -14.919171257506525,
        "alt_km": 633.9559267268814,
        "timestamp": "2025-12-03T15:48:03.452005+00:00",
        "meta_object_name": "IRIDIUM 33 DEB",
        "meta_object_id": "1997-051QN",
        "meta_epoch": "2025-12-01T18:38:49.911648",
        "meta_mean_motion": 14.81359224,
        "meta_eccentricity": 0.00086191,
        "meta_inclination": 86.3548,
        "meta_ra_of_asc_node": 350.7677,
        "meta_arg_of_pericenter": 204.4295,
        "meta_mean_anomaly": 155.6519,
        "meta_ephemeris_type": 0,
        "meta_classification_type": "U",
        "meta_norad_cat_id": 35616,
        "meta_element_set_no": 999,
        "meta_rev_at_epoch": 87412,
        "meta_bstar": 0.0016385024,
        "meta_mean_motion_dot": 0.00012841,
        "meta_mean_motion_ddot": 0,
        "tle_line1": "1 35616U 97051QN  25335.77696657  .00012841  00000+0  16385-2 0  9994",
        "tle_line2": "2 35616  86.3548 350.7677 0008619 204.4295 155.6519 14.81359224874125"
      },
      "geometry": {
        "type": "Point",
        "coordinates": [
          -14.919171257506525,
          -52.86430474017835
        ]
      }
    },
    {
      "type": "Feature",
      "properties": {
        "norad_id": 35618,
        "name": "IRIDIUM 33 DEB",
        "group": "iridium-33-debris",
        "lat": -49.134825933529754,
        "lon": -6.768472538640523,
        "alt_km": 728.8998881113012,
        "timestamp": "2025-12-03T15:48:03.452014+00:00",
        "meta_object_name": "IRIDIUM 33 DEB",
        "meta_object_id": "1997-051QQ",
        "meta_epoch": "2025-11-27T19:27:47.606688",
        "meta_mean_motion": 14.52216193,
        "meta_eccentricity": 0.00308317,
        "meta_inclination": 86.3414,
        "meta_ra_of_asc_node": 0.0275,
        "meta_arg_of_pericenter": 70.0508,
        "meta_mean_anomaly": 290.4015,
        "meta_ephemeris_type": 0,
        "meta_classification_type": "U",
        "meta_norad_cat_id": 35618,
        "meta_element_set_no": 999,
        "meta_rev_at_epoch": 65177,
        "meta_bstar": 0.00046503481,
        "meta_mean_motion_dot": 1.919e-05,
        "meta_mean_motion_ddot": 0,
        "tle_line1": "1 35618U 97051QQ  25331.81096767  .00001919  00000+0  46503-3 0  9993",
        "tle_line2": "2 35618  86.3414   0.0275 0030831  70.0508 290.4015 14.52216193651771"
      },
      "geometry": {
        "type": "Point",
        "coordinates": [
          -6.768472538640523,
          -49.134825933529754
        ]
      }
    },
    {
      "type": "Feature",
      "properties": {
        "norad_id": 35620,
        "name": "IRIDIUM 33 DEB",
        "group": "iridium-33-debris",
        "lat": 47.435800547928814,
        "lon": -134.77416790343605,
        "alt_km": 811.5871892907735,
        "timestamp": "2025-12-03T15:48:03.452024+00:00",
        "meta_object_name": "IRIDIUM 33 DEB",
        "meta_object_id": "1997-051QS",
        "meta_epoch": "2025-12-02T22:52:25.088160",
        "meta_mean_motion": 14.37465338,
        "meta_eccentricity": 0.01453093,
        "meta_inclination": 86.388,
        "meta_ra_of_asc_node": 221.5792,
        "meta_arg_of_pericenter": 291.0856,
        "meta_mean_anomaly": 67.4857,
        "meta_ephemeris_type": 0,
        "meta_classification_type": "U",
        "meta_norad_cat_id": 35620,
        "meta_element_set_no": 999,
        "meta_rev_at_epoch": 59825,
        "meta_bstar": 0.0076536129,
        "meta_mean_motion_dot": 0.00025951,
        "meta_mean_motion_ddot": 0,
        "tle_line1": "1 35620U 97051QS  25336.95306815  .00025951  00000+0  76536-2 0  9994",
        "tle_line2": "2 35620  86.3880 221.5792 0145309 291.0856  67.4857 14.37465338598252"
      },
      "geometry": {
        "type": "Point",
        "coordinates": [
          -134.77416790343605,
          47.435800547928814
        ]
      }
    },
    {
      "type": "Feature",
      "properties": {
        "norad_id": 35622,
        "name": "IRIDIUM 33 DEB",
        "group": "iridium-33-debris",
        "lat": 43.128954818102876,
        "lon": 84.50592795552807,
        "alt_km": 559.9338419403484,
        "timestamp": "2025-12-03T15:48:03.452033+00:00",
        "meta_object_name": "IRIDIUM 33 DEB",
        "meta_object_id": "1997-051QU",
        "meta_epoch": "2025-12-03T06:17:03.783840",
        "meta_mean_motion": 15.0277191,
        "meta_eccentricity": 0.0010538,
        "meta_inclination": 86.2056,
        "meta_ra_of_asc_node": 268.2648,
        "meta_arg_of_pericenter": 2.3967,
        "meta_mean_anomaly": 150.3951,
        "meta_ephemeris_type": 0,
        "meta_classification_type": "U",
        "meta_norad_cat_id": 35622,
        "meta_element_set_no": 999,
        "meta_rev_at_epoch": 87217,
        "meta_bstar": 0.0062140642,
        "meta_mean_motion_dot": 0.00084066,
        "meta_mean_motion_ddot": 0,
        "tle_line1": "1 35622U 97051QU  25337.26184935  .00084066  00000+0  62141-2 0  9997",
        "tle_line2": "2 35622  86.2056 268.2648 0010538   2.3967 150.3951 15.02771910872179"
      },
      "geometry": {
        "type": "Point",
        "coordinates": [
          84.50592795552807,
          43.128954818102876
        ]
      }
    },
    {
      "type": "Feature",
      "properties": {
        "norad_id": 35628,
        "name": "IRIDIUM 33 DEB",
        "group": "iridium-33-debris",
        "lat": 71.83011458910464,
        "lon": 24.315144666308047,
        "alt_km": 658.2940439891354,
        "timestamp": "2025-12-03T15:48:03.452042+00:00",
        "meta_object_name": "IRIDIUM 33 DEB",
        "meta_object_id": "1997-051RA",
        "meta_epoch": "2025-12-02T19:50:02.046048",
        "meta_mean_motion": 14.67345428,
        "meta_eccentricity": 0.00116325,
        "meta_inclination": 86.3582,
        "meta_ra_of_asc_node": 13.4962,
        "meta_arg_of_pericenter": 17.351,
        "meta_mean_anomaly": 342.81,
        "meta_ephemeris_type": 0,
        "meta_classification_type": "U",
        "meta_norad_cat_id": 35628,
        "meta_element_set_no": 999,
        "meta_rev_at_epoch": 86301,
        "meta_bstar": 0.0016793576,
        "meta_mean_motion_dot": 9.517e-05,
        "meta_mean_motion_ddot": 0,
        "tle_line1": "1 35628U 97051RA  25336.82641257  .00009517  00000+0  16794-2 0  9990",
        "tle_line2": "2 35628  86.3582  13.4962 0011632  17.3510 342.8100 14.67345428863013"
      },
      "geometry": {
        "type": "Point",
        "coordinates": [
          24.315144666308047,
          71.83011458910464
        ]
      }
    },
    {
      "type": "Feature",
      "properties": {
        "norad_id": 35631,
        "name": "IRIDIUM 33 DEB",
        "group": "iridium-33-debris",
        "lat": -85.50238316735597,
        "lon": -101.26876107531004,
        "alt_km": 748.8093792260988,
        "timestamp": "2025-12-03T15:48:03.452051+00:00",
        "meta_object_name": "IRIDIUM 33 DEB",
        "meta_object_id": "1997-051RD",
        "meta_epoch": "2025-12-01T09:32:13.809120",
        "meta_mean_motion": 14.47260749,
        "meta_eccentricity": 0.00179714,
        "meta_inclination": 86.3683,
        "meta_ra_of_asc_node": 25.8593,
        "meta_arg_of_pericenter": 152.8458,
        "meta_mean_anomaly": 221.75,
        "meta_ephemeris_type": 0,
        "meta_classification_type": "U",
        "meta_norad_cat_id": 35631,
        "meta_element_set_no": 999,
        "meta_rev_at_epoch": 87033,
        "meta_bstar": 0.00039861832,
        "meta_mean_motion_dot": 1.48e-05,
        "meta_mean_motion_ddot": 0,
        "tle_line1": "1 35631U 97051RD  25335.39738205  .00001480  00000+0  39862-3 0  9998",
        "tle_line2": "2 35631  86.3683  25.8593 0017971 152.8458 221.7500 14.47260749870336"
      },
      "geometry": {
        "type": "Point",
        "coordinates": [
          -101.26876107531004,
          -85.50238316735597
        ]
      }
    },
    {
      "type": "Feature",
      "properties": {
        "norad_id": 35680,
        "name": "IRIDIUM 33 DEB",
        "group": "iridium-33-debris",
        "lat": 24.45056986323146,
        "lon": 27.319610472533036,
        "alt_km": 796.5086035513195,
        "timestamp": "2025-12-03T15:48:03.452061+00:00",
        "meta_object_name": "IRIDIUM 33 DEB",
        "meta_object_id": "1997-051RJ",
        "meta_epoch": "2025-12-01T22:00:09.279648",
        "meta_mean_motion": 14.20616647,
        "meta_eccentricity": 0.01501261,
        "meta_inclination": 86.103,
        "meta_ra_of_asc_node": 26.3138,
        "meta_arg_of_pericenter": 313.2693,
        "meta_mean_anomaly": 168.1986,
        "meta_ephemeris_type": 0,
        "meta_classification_type": "U",
        "meta_norad_cat_id": 35680,
        "meta_element_set_no": 999,
        "meta_rev_at_epoch": 60547,
        "meta_bstar": 0.0036692718,
        "meta_mean_motion_dot": 8.864e-05,
        "meta_mean_motion_ddot": 0,
        "tle_line1": "1 35680U 97051RJ  25335.91677407  .00008864  00000+0  36693-2 0  9997",
        "tle_line2": "2 35680  86.1030  26.3138 0150126 313.2693 168.1986 14.20616647605475"
      },
      "geometry": {
        "type": "Point",
        "coordinates": [
          27.319610472533036,
          24.45056986323146
        ]
      }
    }
  ]
}